*******************************************************************************
Ephemeris / WWW_USER Mon Mar 10 08:32:04 2025 Pasadena, USA      / Horizons    
*******************************************************************************
Target body name: 341764 (2007 VZ326)             {source: JPL#18}
Center body name: Earth (399)                     {source: DE441}
Center-site name: Mauna Kea
*******************************************************************************
Start time      : A.D. 2018-Oct-27 04:00:00.0000 UT      
Stop  time      : A.D. 2018-Oct-27 16:11:00.0000 UT      
Step-size       : 1 minutes
*******************************************************************************
Target pole/equ : undefined
Target radii    : undefined                                                    
Center geodetic : 204.5278, 19.8260847, 4.21024   {E-lon(deg),Lat(deg),Alt(km)}
Center cylindric: 204.5278, 6006.35451, 2151.0229 {E-lon(deg),Dxy(km),Dz(km)}
Center pole/equ : ITRF93                          {East-longitude positive}
Center radii    : 6378.137, 6378.137, 6356.752 km {Equator_a, b, pole_c}       
Target primary  : Sun
Vis. interferer : MOON (R_eq= 1737.400) km        {source: DE441}
Rel. light bend : Sun                             {source: DE441}
Rel. lght bnd GM: 1.3271E+11 km^3/s^2                                          
Small-body perts: Yes                             {source: SB441-N16}
Atmos refraction: NO (AIRLESS)
RA format       : HMS
Time format     : CAL 
Calendar mode   : Mixed Julian/Gregorian
RTS-only print  : NO       
EOP file        : eop.250307.p250603                                           
EOP coverage    : DATA-BASED 1962-JAN-20 TO 2025-MAR-07. PREDICTS-> 2025-JUN-02
Units conversion: 1 au= 149597870.700 km, c= 299792.458 km/s, 1 day= 86400.0 s 
Table cut-offs 1: Elevation (-90.0deg=NO ),Airmass (>38.000=NO), Daylight (YES)
Table cut-offs 2: Solar elongation (  0.0,180.0=NO ),Local Hour Angle( 0.0=NO )
Table cut-offs 3: RA/DEC angular rate (     0.0=NO )                           
*******************************************************************************
Initial IAU76/J2000 heliocentric ecliptic osculating elements (au, days, deg.):
  EPOCH=  2458738.5 ! 2019-Sep-12.00 (TDB)         Residual RMS= .13886        
   EC= .1008373990761695   QR= 2.768240023430626   TP= 2458584.3440952813      
   OM= 228.7009686323446   W=  245.4004729743531   IN= 4.232471987434818       
  Equivalent ICRF heliocentric cartesian coordinates (au, au/d):
   X=-2.388613100272569E+00  Y= 1.431394755664809E+00  Z= 3.975078424350988E-01
  VX=-6.081658482309184E-03 VY=-8.102092841560219E-03 VZ=-3.413222734767960E-03
Asteroid physical parameters (km, seconds, rotational period in hours):        
   GM= n.a.                RAD= n.a.               ROTPER= n.a.                
   H= 16.54                G= .150                 B-V= n.a.                   
                           ALBEDO= n.a.            STYP= n.a.                  
*******************************************************************************
 Date__(UT)__HR:MN     R.A._________(ICRF)_________DEC
******************************************************
$$SOE
 2018-Oct-27 12:12  m  06 23 19.143714 +20 44 05.53944
 2018-Oct-27 12:13  m  06 23 19.151083 +20 44 05.45816
 2018-Oct-27 12:14  m  06 23 19.158448 +20 44 05.37685
 2018-Oct-27 12:15  m  06 23 19.165809 +20 44 05.29553
 2018-Oct-27 12:16  m  06 23 19.173167 +20 44 05.21418
 2018-Oct-27 12:17  m  06 23 19.180522 +20 44 05.13281
 2018-Oct-27 12:18  m  06 23 19.187873 +20 44 05.05142
 2018-Oct-27 12:19  m  06 23 19.195221 +20 44 04.97001
 2018-Oct-27 12:20  m  06 23 19.202566 +20 44 04.88857
 2018-Oct-27 12:21  m  06 23 19.209907 +20 44 04.80712
 2018-Oct-27 12:22  m  06 23 19.217244 +20 44 04.72564
 2018-Oct-27 12:23  m  06 23 19.224579 +20 44 04.64414
 2018-Oct-27 12:24  m  06 23 19.231910 +20 44 04.56262
 2018-Oct-27 12:25  m  06 23 19.239238 +20 44 04.48108
 2018-Oct-27 12:26  m  06 23 19.246562 +20 44 04.39951
 2018-Oct-27 12:27  m  06 23 19.253884 +20 44 04.31792
 2018-Oct-27 12:28  m  06 23 19.261202 +20 44 04.23631
 2018-Oct-27 12:29  m  06 23 19.268517 +20 44 04.15468
 2018-Oct-27 12:30  m  06 23 19.275828 +20 44 04.07303
 2018-Oct-27 12:31  m  06 23 19.283137 +20 44 03.99135
 2018-Oct-27 12:32  m  06 23 19.290442 +20 44 03.90965
 2018-Oct-27 12:33  m  06 23 19.297744 +20 44 03.82793
 2018-Oct-27 12:34  m  06 23 19.305043 +20 44 03.74619
 2018-Oct-27 12:35  m  06 23 19.312340 +20 44 03.66442
 2018-Oct-27 12:36  m  06 23 19.319632 +20 44 03.58263
 2018-Oct-27 12:37  m  06 23 19.326922 +20 44 03.50082
 2018-Oct-27 12:38  m  06 23 19.334209 +20 44 03.41898
 2018-Oct-27 12:39  m  06 23 19.341493 +20 44 03.33713
 2018-Oct-27 12:40  m  06 23 19.348774 +20 44 03.25525
 2018-Oct-27 12:41  m  06 23 19.356052 +20 44 03.17334
 2018-Oct-27 12:42  m  06 23 19.363327 +20 44 03.09142
 2018-Oct-27 12:43  m  06 23 19.370599 +20 44 03.00947
 2018-Oct-27 12:44  m  06 23 19.377868 +20 44 02.92750
 2018-Oct-27 12:45  m  06 23 19.385134 +20 44 02.84550
 2018-Oct-27 12:46  m  06 23 19.392398 +20 44 02.76348
 2018-Oct-27 12:47  m  06 23 19.399658 +20 44 02.68144
 2018-Oct-27 12:48  m  06 23 19.406916 +20 44 02.59938
 2018-Oct-27 12:49  m  06 23 19.414171 +20 44 02.51729
 2018-Oct-27 12:50  m  06 23 19.421423 +20 44 02.43518
 2018-Oct-27 12:51  m  06 23 19.428672 +20 44 02.35305
 2018-Oct-27 12:52  m  06 23 19.435919 +20 44 02.27089
 2018-Oct-27 12:53  m  06 23 19.443162 +20 44 02.18871
 2018-Oct-27 12:54  m  06 23 19.450404 +20 44 02.10650
 2018-Oct-27 12:55  m  06 23 19.457642 +20 44 02.02428
 2018-Oct-27 12:56  m  06 23 19.464878 +20 44 01.94202
 2018-Oct-27 12:57  m  06 23 19.472111 +20 44 01.85975
 2018-Oct-27 12:58  m  06 23 19.479342 +20 44 01.77745
 2018-Oct-27 12:59  m  06 23 19.486569 +20 44 01.69513
 2018-Oct-27 13:00  m  06 23 19.493795 +20 44 01.61278
 2018-Oct-27 13:01  m  06 23 19.501018 +20 44 01.53041
 2018-Oct-27 13:02  m  06 23 19.508238 +20 44 01.44802
 2018-Oct-27 13:03  m  06 23 19.515456 +20 44 01.36560
 2018-Oct-27 13:04  m  06 23 19.522671 +20 44 01.28316
 2018-Oct-27 13:05  m  06 23 19.529883 +20 44 01.20070
 2018-Oct-27 13:06  m  06 23 19.537094 +20 44 01.11821
 2018-Oct-27 13:07  m  06 23 19.544302 +20 44 01.03570
 2018-Oct-27 13:08  m  06 23 19.551507 +20 44 00.95316
 2018-Oct-27 13:09  m  06 23 19.558710 +20 44 00.87060
 2018-Oct-27 13:10  m  06 23 19.565911 +20 44 00.78802
 2018-Oct-27 13:11  m  06 23 19.573109 +20 44 00.70541
 2018-Oct-27 13:12  m  06 23 19.580305 +20 44 00.62277
 2018-Oct-27 13:13  m  06 23 19.587499 +20 44 00.54012
 2018-Oct-27 13:14  m  06 23 19.594690 +20 44 00.45744
 2018-Oct-27 13:15  m  06 23 19.601879 +20 44 00.37473
 2018-Oct-27 13:16  m  06 23 19.609066 +20 44 00.29200
 2018-Oct-27 13:17  m  06 23 19.616251 +20 44 00.20925
 2018-Oct-27 13:18  m  06 23 19.623434 +20 44 00.12647
 2018-Oct-27 13:19  m  06 23 19.630614 +20 44 00.04367
 2018-Oct-27 13:20  m  06 23 19.637792 +20 43 59.96084
 2018-Oct-27 13:21  m  06 23 19.644968 +20 43 59.87799
 2018-Oct-27 13:22  m  06 23 19.652142 +20 43 59.79511
 2018-Oct-27 13:23  m  06 23 19.659314 +20 43 59.71221
 2018-Oct-27 13:24  m  06 23 19.666483 +20 43 59.62929
 2018-Oct-27 13:25  m  06 23 19.673651 +20 43 59.54634
 2018-Oct-27 13:26  m  06 23 19.680817 +20 43 59.46336
 2018-Oct-27 13:27  m  06 23 19.687981 +20 43 59.38037
 2018-Oct-27 13:28  m  06 23 19.695142 +20 43 59.29734
 2018-Oct-27 13:29  m  06 23 19.702302 +20 43 59.21429
 2018-Oct-27 13:30  m  06 23 19.709460 +20 43 59.13122
 2018-Oct-27 13:31  m  06 23 19.716616 +20 43 59.04813
 2018-Oct-27 13:32  m  06 23 19.723769 +20 43 58.96500
 2018-Oct-27 13:33  m  06 23 19.730922 +20 43 58.88186
 2018-Oct-27 13:34  m  06 23 19.738072 +20 43 58.79869
 2018-Oct-27 13:35  m  06 23 19.745220 +20 43 58.71549
 2018-Oct-27 13:36  m  06 23 19.752367 +20 43 58.63227
 2018-Oct-27 13:37  m  06 23 19.759512 +20 43 58.54902
 2018-Oct-27 13:38  m  06 23 19.766655 +20 43 58.46575
 2018-Oct-27 13:39  m  06 23 19.773796 +20 43 58.38246
 2018-Oct-27 13:40  m  06 23 19.780935 +20 43 58.29914
 2018-Oct-27 13:41  m  06 23 19.788073 +20 43 58.21579
 2018-Oct-27 13:42  m  06 23 19.795209 +20 43 58.13242
 2018-Oct-27 13:43  m  06 23 19.802344 +20 43 58.04903
 2018-Oct-27 13:44  m  06 23 19.809477 +20 43 57.96561
 2018-Oct-27 13:45  m  06 23 19.816608 +20 43 57.88216
 2018-Oct-27 13:46  m  06 23 19.823738 +20 43 57.79869
 2018-Oct-27 13:47  m  06 23 19.830866 +20 43 57.71520
 2018-Oct-27 13:48  m  06 23 19.837993 +20 43 57.63168
 2018-Oct-27 13:49  m  06 23 19.845118 +20 43 57.54813
 2018-Oct-27 13:50  m  06 23 19.852241 +20 43 57.46456
 2018-Oct-27 13:51  m  06 23 19.859363 +20 43 57.38097
 2018-Oct-27 13:52  m  06 23 19.866484 +20 43 57.29735
 2018-Oct-27 13:53  m  06 23 19.873603 +20 43 57.21370
 2018-Oct-27 13:54  m  06 23 19.880721 +20 43 57.13003
 2018-Oct-27 13:55  m  06 23 19.887837 +20 43 57.04634
 2018-Oct-27 13:56  m  06 23 19.894952 +20 43 56.96262
 2018-Oct-27 13:57  m  06 23 19.902066 +20 43 56.87887
 2018-Oct-27 13:58  m  06 23 19.909178 +20 43 56.79510
 2018-Oct-27 13:59  m  06 23 19.916289 +20 43 56.71130
 2018-Oct-27 14:00  m  06 23 19.923399 +20 43 56.62748
 2018-Oct-27 14:01  m  06 23 19.930508 +20 43 56.54363
 2018-Oct-27 14:02  m  06 23 19.937615 +20 43 56.45976
 2018-Oct-27 14:03  m  06 23 19.944721 +20 43 56.37586
 2018-Oct-27 14:04  m  06 23 19.951826 +20 43 56.29194
 2018-Oct-27 14:05  m  06 23 19.958929 +20 43 56.20799
 2018-Oct-27 14:06  m  06 23 19.966032 +20 43 56.12402
 2018-Oct-27 14:07  m  06 23 19.973133 +20 43 56.04002
 2018-Oct-27 14:08  m  06 23 19.980234 +20 43 55.95600
 2018-Oct-27 14:09  m  06 23 19.987333 +20 43 55.87195
 2018-Oct-27 14:10  m  06 23 19.994431 +20 43 55.78788
 2018-Oct-27 14:11  m  06 23 20.001528 +20 43 55.70378
 2018-Oct-27 14:12  m  06 23 20.008624 +20 43 55.61965
 2018-Oct-27 14:13  m  06 23 20.015720 +20 43 55.53550
 2018-Oct-27 14:14  m  06 23 20.022814 +20 43 55.45133
